SchoolNumber,SchoolName,Address1,Address2,City,State,Zip,Administrator,Phone,Email,Website,SchoolType,Expires,ContinuingEducation,PreLicense,DistanceLearning
S03-0008,COMMERCIAL REAL ESTATE SEMINARS,20343 N. HAYDEN RD,SUITE 105-160,SCOTTSDALE,AZ,85255,Andrew "Patrick" Sheahan,(480) 251-5338,Sheahan@usa.com,www.creseminars.com,Private School,4/30/2023 12:00:00 AM,True,False,False
S03-0012,EARNEST SCHOOL OF REAL ESTATE (THE),830 S Higley,,Gilbert,AZ,85296,Danette Earnest,(480) 820-9040,danette@earnestRealestategroup.com,,Private School,4/30/2023 12:00:00 AM,True,True,False
S03-0023,SYMPOSIUM SERIES,4752 S. MERRIMAN WAY,,GILBERT,AZ,85297,WENDY ROGERS,(480) 529-9891,wendyjrogers@gmail.com,www.phoenix.housemaster.com,Private School,1/31/2025 12:00:00 AM,True,False,False
S04-0003,REAL ESTATE LEARNING CENTER,11445 E VIA LINDA SUITE 2 #533,,SCOTTSDALE,AZ,85259,Lori McCallister,(480) 442-2036,lori@realestatelc.com,www.realestatelc.com,Private School,4/30/2024 12:00:00 AM,True,False,True
S04-0010,STEPHEN WOLF SEMINARS,3849 E. Broadway # 213,,Tucson,AZ,85716,STEPHEN WOLF,(520) 975-1900,wolfmortgage@yahoo.com,,Private School,10/31/2024 12:00:00 AM,True,False,False
S06-0003,ARIZONA DIVERSIFIED REAL ESTATE SCHOOL,33765 N SCOTTSDALE RD BLD B,,SCOTTSDALE,AZ,85266,SUSAN CARROLL-HAMBLEN,(602) 943-7252,c21susan.realtor@gmail.com,,Private School,2/28/2026 12:00:00 AM,True,False,False
S05-0007,GILA COUNTY COMMUNITY COLLEGE,201 N. MUDSPRINGS ROAD,,PAYSON,AZ,85541,ANN KNIGHTS,(928) 468-8039,ann.knights@eac.edu,www.gilaccc.org,College,,True,True,False
S05-0008,RITCHIE SCHOOL OF REAL ESTATE FINANCE,1550 E. WINDMERE DR.,,PHOENIX,AZ,85048,PATRICK RITCHIE,480-203-4641,patrick.ritchie@outlook.com,www.patrickritchie.com,Private School,7/31/2023 12:00:00 AM,True,False,False
S06-0002,DESERT SAGE SEMINARS,15029 N THOMPSON PEAK #B111-487,,Scottsdale,AZ,85260,JON KICHEN/DANA KICHEN-Owner/Administrator,(602) 377-6207,jon@desertsageseminars.com,www.desertsageseminars.com,Private School,2/28/2026 12:00:00 AM,True,False,True
S06-0010,CCIM INSTITUTE,430 North Michigan Avenue Ste. 700,,Chicago,IL,60611-4092,ANTOINETTE JORDAN,(312) 321-4460,CECREDIT@CCIM.COM,www.ccim.com,Independent Organization,10/31/2025 12:00:00 AM,True,False,False
S06-0015,BAUM SCHOOL OF REAL ESTATE,2301 S Stearman Dr.,,CHANDLER,AZ,85286,MARTIN I. BAUM,(480) 466-4418,martybhome@mac.com,www.yougotclass.com,Private School,9/30/2022 12:00:00 AM,True,True,True
S06-0018,"HOMESMART UNIVERSITY, LLC",8388 East Hartford ste 100,,Scottsdale,AZ,85255,MATTHEWS D. WIDDOWS,(602) 230-7600,education@hsmove.com,www.homesmartinternational.com,Private School,10/31/2022 12:00:00 AM,True,True,True
S06-0021,AGENT UNIVERSITY,6544 E. DEACON ST,,PRESCOTT VALLEY,AZ,86314,STEVE IRWIN,(928) 710-8257,stevemirwin@gmail.com,www.agentuniversity.com,Private School,11/30/2022 12:00:00 AM,True,True,True
S06-0024,"HOW2EDUCATE LLC,",65 MANZANITA LANE,,SEDONA,AZ,86336,Kathleen Howe,(928) 274-4088,kathy@kathyhowe.com,www.how2educate.com,Private School,12/31/2022 12:00:00 AM,True,True,False
S07-0008,WEMAR SCHOOL OF REAL ESTATE,9001 W. Union Hills Dr.,,Peoria,AZ,85382,ROGER D. NELSON,(623) 931-9294,jvargas@wemar.org,www.wemar.org,Private School,4/30/2023 12:00:00 AM,True,False,False
S07-0017,ADVANCED REAL ESTATE INVESTMENT SOLUTIONS,11445 E. Via Linda #2-222,,Scottsdale,AZ,85259,Jeffery Raskin,(602) 206-7200,jeff@tech4re.com,www.tech4re.com,Private School,6/30/2023 12:00:00 AM,True,False,False
S08-0004,"THE CE SHOP, INC.",5670 GREENWOOD PLAZA BLVD. STE 420,,GREENWOOD VILLAGE,CO,80111,Michael McAllister,1 (888) 827-0777,compliance@theceshop.com,www.theceshop.com,Private School,1/31/2024 12:00:00 AM,False,True,True
S08-0018,AMERICAN INSTITUTE OF PROFESSIONAL STANDARDS AND PRACTICES,"3190 S GILBERT ROAD, SUITE 5",,CHANDLER,AZ,85286,TODD MENARD,(480) 331-4357,tmenard@prostandards.com,www.prostandards.com,Private School,4/30/2024 12:00:00 AM,True,False,False
S07-0018,EDUCATIONAL SYSTEMS,14214 N. 58th St,,Scottsdale,AZ,85254,Ivan Kobey,(602) 228-0481,imkobey@gmail.com,,Private School,6/30/2023 12:00:00 AM,True,True,True
S07-0027,SOUTHERN ARIZONA SCHOOL OF REAL ESTATE,1650 E. River Road Suite 202,,Tucson,AZ,85718,Patrick Teske,(520) 336-2456,AmandaElmer@TierraAntigua.net,,Private School,2/29/2024 12:00:00 AM,True,False,False
S08-0016,TEST SCHOOL 1,Line 1,Line 2,Anywhere,AZ,99999,Test Administrator,(999) 888-8888,kgoode@azre.gov,www.azre.gov,Private School,,True,True,True
S08-0027,INTERNAL DYNAMICS SCHOOL OF REAL ESTATE,7440 E PINNACLE PEAK RD STE 146,,SCOTTSDALE,AZ,85255,MARTI BARNEWOLT,(602) 363-2960, marti@idsre.com,www.idsre.com,Private School,7/31/2024 12:00:00 AM,True,True,False
S09-0018,PROPERTY MANAGEMENT INSTITUTE LLC,935 TUSCANA LN.,,GILBERT,AZ,85234,STEVEN R URIE,(480) 252-5575,steveurie@aol.com,,Private School,8/31/2025 12:00:00 AM,True,False,False
S08-0029,SCHOOL OF VETERANS HOME FINANCING,3602 E. CAMPBELL AVE,,PHOENIX,AZ,85018,JAMES VERCELLINO,6029085849,jamesvercellino@gmail.com,www.JimmyVercellino.com ,Private School,7/31/2024 12:00:00 AM,True,False,False
S08-0034,GEE WHIZ REAL ESTATE SCHOOL,2028 E BEN WHITE BLVD. STE 240-2355,,AUSTIN,TX,78741,SHARON PUMPHREY,(866) 559-9449,compliance@geewhizce.com,www.geewhizce.com,Independent Organization,8/31/2024 12:00:00 AM,True,False,True
S08-0039,RONALD C. ROBERTS P.C.,P.O. BOX 151,,CAVE CREEK,AZ,85327,RONALD C. ROBERTS,(602) 369-4152,RRoberts@RealtyExecsAz.com,,Independent Organization,9/30/2024 12:00:00 AM,True,False,False
S08-0015,CBT ALLIANCE,290 May Rd,,MCCALL,ID,83638,"Darren Isaacs, Matt Johnson",(866) 538-8193,support@cbtrealestate.com,www.CBTRealEstate.com,Private School,4/30/2024 12:00:00 AM,True,False,True
S09-0017,TEST SCHOOL RECORD,2910 North 44th Street,,Phoenix,AZ,85018,Primary Admin,(602) 771-7700,kgoode@azre.gov,www.azre.gov,Other,7/30/2013 12:00:00 AM,False,True,False
S09-0025,REVIVE,3418 E MONTE CRISTO AVE,,PHOENIX,AZ,85032,LAURA KOVACS,(602) 228-0910,Laura@Revive-Learning.com,,Private School,11/30/2025 12:00:00 AM,True,False,False
S10-0003,ARIZONA COURSE PROVIDERS,13236 N 7th STREET UNIT 4 PMB 809,,PHOENIX,AZ,85022,Becky Ryan,(480) 949-1000,info@arizonacourseproviders.com,www.onlinecourselink.com,Private School,1/31/2026 12:00:00 AM,True,False,False
S10-0005,ONLINE COURSE PROVIDERS,13236 N. 7TH ST. UNIT 4 PMB 809,,PHOENIX,AZ,85022,BECKY RYAN,(480) 220-5957,becky@onlinecourselink.com,www.onlinecourselink.com,Private School,1/31/2026 12:00:00 AM,True,False,True
S10-0012,QUANTUM PERFORMANCE  ACADEMY,255 S. Kyrene Rd. #232,,Chandler,AZ,85226,JIM ZIRBES,(602) 769-6833,jim.zirbes@gmail.com,,Private School,5/31/2022 12:00:00 AM,True,False,False
S10-0021,RL LEARNING INSTITUTE,7669 E PINNACLE PEAK RD SUITE 110,,SCOTTSDALE,AZ,85255,MICHAEL BALZOTTI,(480) 585-7070,mike.balzotti@russlyon.com,,Private School,9/30/2022 12:00:00 AM,True,False,False
S10-0011,MARNELL SCHOOLS LLC,19023 E. BUCKSKIN CT,,RIO VERDE,AZ,85263,MARCUS MARNELL,(602) 826-8799,mvmarnell@gmail.com,MARNELLSCHOOLS.COM,Private School,3/31/2026 12:00:00 AM,True,False,True
S10-0014,TRAINING COVE,14301 N 87TH ST #106,,SCOTTSDALE,AZ,85260,STEVEN J. JORDAN,(480) 517-1000,help@trainingcove.com,www.trainingcove.com,Private School,4/30/2026 12:00:00 AM,True,False,True
S10-0016,"WINN SCHOOL OF REAL ESTATE, LLC",3080 N STATE HIGHWAY 89,,PRESCOTT,AZ,86301,Betty Frances Winn,(928) 499-7970,betty@WinnSchoolofrealestate.com,www.winnschoolofrealestate.com,Private School,5/31/2026 12:00:00 AM,True,True,False
P-1171.2,FIRST AMERICAN EAGLE UNIVERSITY,20860 N. TATUM BLVD STE 100,,PHOENIX,AZ,85050,MARTHA BARNEWOLT,(602) 685-7025,,www.thinkfirstamerican.com,Private School,6/30/2024 12:00:00 AM,True,False,False
P-1171.3,FIRST AMERICAN EAGLE UNIVERSITY,16165 N. 83RD AVE STE 100,,PEORIA,AZ,85382,MARTHA BARNEWOLT,(602) 685-7025,,www.thinkfirstamerican.com,Private School,6/30/2024 12:00:00 AM,True,False,False
P-1171.5,FIRST AMERICAN EAGLE UNIVERSITY,"18291 N. PIMA ROAD, STE 145",,SCOTTSDALE,AZ,85255,MARTHA BARNEWOLT,(602) 685-7025,,www.thinkfirstamerican.com,Private School,6/30/2024 12:00:00 AM,True,False,False
S11-0011,FOCUS SCHOOL OF REAL ESTATE,1230 E. LINDA VISTA BLVD.,,FLAGSTAFF,AZ,86004,Paula Monthofer,(928) 853-9770,Pmonthofer@mac.com,PaulaMonthofer.com,Independent Organization,7/31/2023 12:00:00 AM,True,False,False
S08-0031,SOUTHEAST ARIZONA SCHOOL OF REAL ESTATE,432 E. FRY BLVD,,SIERRA VISTA,AZ,85635,Michelle K. Goodman,(520) 220-8200,seazsore@gmail.com,,Private School,6/30/2024 12:00:00 AM,True,True,False
S09-0016,COURSE CREATORS,"120 S. Houghton Rd., #138-128",,TUCSON,AZ,85718,THERESA BARNABEI,(520) 631-4537,support@coursecreators.com,www.coursecreators.com,Private School,8/31/2025 12:00:00 AM,True,True,False
S10-0020,"GREYSTONE EDUCATIONAL INSTITUTE, LLC",6710 N SCOTTSDALE RD #180,,SCOTTSDALE,AZ,85253,Mike Abel,(480) 560-9294,mikeaabel@yahoo.com,,Private School,8/31/2022 12:00:00 AM,True,False,False
S11-0006,NOVA SCHOOL OF REAL ESTATE,"6245 E. Broadway Blvd., Ste 400",,Tucson,AZ,85711,JON VOLPE,(520) 202-4845,EDUCATION@NOVAHOMELOANS.COM,www.theeducationexchange.net,Private School,4/30/2023 12:00:00 AM,True,False,False
S11-0012,DODD'S SCHOOL OF REAL ESTATE,18973 E CARRIAGE WAY,,QUEEN CREEK,AZ,85142,SHANE DODD,480 229 3727,SHANELDODD@gmail.com,www.doddsre.com,Private School,7/31/2023 12:00:00 AM,True,True,True
S11-0017,"SONORAN SCHOOL FOR REAL ESTATE PROFESSIONALS, LLC",2450 S GILBERT RD. #200,,Chandler,AZ,85286,David L Brown - I10-0001,(480) 422-8981,info@sonoranres.com,,Private School,9/30/2023 12:00:00 AM,True,False,False
S12-0004,EXECUTIVE CENTER FOR REAL ESTATE EDUCATION,14300 N. NORTHSIGHT BLVD. #129,,SCOTTSDALE,AZ,85260,Matt Deuitch,(480) 994-0800,BrokerMatt@dprrealty.com,,Private School,3/31/2024 12:00:00 AM,True,True,False
S12-0004.1,EXECUTIVE CENTER FOR REAL ESTATE EDUCATION,14300 N. NORTHSIGHT BLVD. #129,,Scottsdale,AZ,85260,Robert D. Milton (owner),,BrokerMatt@dprrealty.com,,Private School,3/31/2024 12:00:00 AM,True,False,False
S12-0004.2,EXECUTIVE CENTER FOR REAL ESTATE EDUCATION,14300 N. NORTHSIGHT BLVD. #129,,SCOTTSDALE,AZ,85260,Robert D. Milton (owner),,BrokerMatt@dprrealty.com,,Private School,3/31/2024 12:00:00 AM,True,False,False
S12-0004.3,EXECUTIVE CENTER FOR REAL ESTATE EDUCATION,14300 N. NORTHSIGHT BLVD. #129,,SCOTTSDALE,AZ,85260,Robert D. Milton (owner),,BrokerMatt@dprrealty.com,,Private School,3/31/2024 12:00:00 AM,True,False,False
S12-0007,THE FORUM REAL ESTATE SCHOOL,2301 S STEARMAN DR,,CHANDLER,AZ,85286,ANGELA FAZIO,(480) 570-8070,angelafazio2@gmail.com,www.theforumrealestateschool.com/,Private School,6/30/2024 12:00:00 AM,True,True,False
S12-0012,REAL CHAOS SOLUTIONS LLC,1043 E Rio Mesa Tr.,,Cottonwood,AZ,86326,HOLLY MABERY,(928) 239-0081,hmabery@gmail.com,,Private School,10/31/2024 12:00:00 AM,True,False,False
S13-0008,"REAL SUCCESS CONCEPTS, LLC",2765 HIGHWAY 95,,BULLHEAD CITY,AZ,86442,EVAN FUCHS,(928) 704-6700,Evan@EvanFuchs.com,EvanFuchs.com,Private School,6/30/2025 12:00:00 AM,True,False,False
S13-0009,"360TRAINING.COM, INC.","5000 PLAZA ON THE LAKE, SUITE 305",,AUSTIN,TX,78746,THOMAS ANDERSON,(888) 360-8764,accreditation@360training.com,www.360training.com,Private School,5/31/2025 12:00:00 AM,True,False,True
S13-0014,ARIZONA REAL ESTATE SCHOOL OF SUCCESS,2355 W. UTOPIA RD. SUITE 102,,PHOENIX,AZ,85027,"CLAYTON FOUTS, TODD C. MENARD",602-226-4053,admin@azress.com,www.azress.com,Private School,8/31/2025 12:00:00 AM,True,True,False
S06-0021.1,AGENT UNIVERSITY,"8766 HWY 89, STE4",,"Prescott, Valley",AZ,86314,Steve Irwin,,stevemirwin@gmail.com,,Private School,11/30/2022 12:00:00 AM,False,False,False
S06-0021.2,AGENT UNIVERSITY,723 East Gurley St.,,Prescott,AZ,86336,Steve Irwin,,stevemirwin@gmail.com,,Private School,11/30/2022 12:00:00 AM,False,False,False
S06-0021.3,AGENT UNIVERSITY,150 HWY 179 STE 4,,Sedona,AZ,86336,Steve Irwin,,stevemirwin@gmail.com,,Private School,11/30/2022 12:00:00 AM,False,False,False
ADRE-0000,ARIZONA DEPARTMENT OF REAL ESTATE,"2910 N 44th Street, #100",,Phoenix,AZ,85018,Carla Randolph,(602) 771-7720,crandolph@azre.gov,www.azre.gov,Other,12/31/2050 12:00:00 AM,True,True,False
C-0504,GLENDALE COMMUNITY COLLEGE,6000 West Olive Avenue,,Glendale,AZ,85302,RACHELLE HALL,(623) 845-3000,rachelle.hall@gccaz.edu,www.gccaz.edu,College,12/31/3000 12:00:00 AM,True,True,False
C-0505,MESA COMMUNITY COLLEGE,1833 West Southern Avenue,,Mesa,AZ,85202,John Michael Beshk,(480) 461-7711,john.beshk@mesacc.edu,http://www.mc.maricopa.edu/dept/d07,College,,True,True,False
C-0507,NORTHLAND PIONEER COLLEGE,PO Box 610,,Holbrook,AZ,86025,Peggy Belknap,(928) 524-7455,peggy.belknap@npc.edu,www.npc.edu,College,,True,True,False
C-0508,PHOENIX COLLEGE,1202 West Thomas Road,,Phoenix,AZ,85013,Doula Zaharopoulos,(602) 285-7777,doula.zaharopoulos@phoenixcollege.edu,www.pc.maricopa.edu,College,,True,True,True
C-0510,SCOTTSDALE COMMUNITY COLLEGE,9000 East Chaparral Road,,Scottsdale,AZ,85256,SUSAN SANDBLOM,(480) 423-6253,susan.sandblom@scottsdalecc.edu,www.scottsdalecc.edu/programs/real-estate,College,6/30/2024 12:00:00 AM,True,True,False
C-0512,SOUTH MOUNTAIN COMMUNITY COLLEGE,7050 South 24th Street,,Phoenix,AZ,85042,BRUCE MCHENRY,(602) 305-5810,bruce.mchenry@southmountaincc.edu,southmountaincc.maricopa.edu,College,,True,True,False
C-0513,PARADISE VALLEY COMMUNITY COLLEGE,18401 North 32nd Street,,Phoenix,AZ,85032,Lynn Phelps,(602) 787-6726,laphelps@cox.net,,College,,True,True,False
I-3017B,INTERNATIONAL RIGHT OF WAY ASSOCIATION CHAPTER 28,24 WEST CAMELBACK RD,,Phoenix,AZ,85013,MARK KELLER,(602) 236-8164,chochstein@cei-az.com,www.irwachapter28.org,Independent Organization,1/31/2024 12:00:00 AM,True,False,False
P-0307,BRODSKY SCHOOL OF REAL ESTATE,PO BOX 32051,,Tucson,AZ,85751,Fred Brodsky,(520) 747-1455,fr3d@theriver.com,www.brodskyschool.com,Private School,2/29/2024 12:00:00 AM,True,True,True
P-1047,"HYLAND BAY SYSTEMS, INC","3240 E. UNION HILLS DR., #131",,PHOENIX,AZ,85050,SCOT WENDORF,(602) 381-1177,scot@hylandbay.com,hylandbay.com,Private School,3/31/2024 12:00:00 AM,True,False,True
S20-0001,Desert 2 Pines Real Estate School dba D2P Real Estate School,2213 E. Monona Drive,,PHOENIX,AZ,85024,Jeanice Ridgway,602-206-1558,jeanice@hotmail.com,www.davidridgway.info,Private School,1/31/2024 12:00:00 AM,True,True,False
S00-0018,Mbition LLC dba Mbition Learn Real Estate,"18500 W. CORPORATE DRIVE, SUITE 250",,BROOKFIELD,WI,53045,NICHOL ANDLER,1 (800) 532-7649,jamie.illingworth@theceshop.com,www.mbitiontolearn.com,Private School,9/30/2025 12:00:00 AM,True,False,True
S00-0020,ED RICKETTS SEMINARS,132 East Echo Lane,,Phoenix,AZ,85020,Edwin J. Ricketts,602 478 0832,edwinjricketts@gmail.com,,Private School,9/30/2024 12:00:00 AM,True,False,False
S01-0001,AZ CHP AMERICAN SOCIETY OF FARM MGRS & RURAL APPRAISERS,MAIL STATION PAB 348,PO BOX 52025,PHOENIX,AZ,85072,MARK KELLER,(602) 236-8164,mark.keller@srpnet.com,www.asfmraaz.com,Independent Organization,1/31/2024 12:00:00 AM,True,False,False
S01-0002,IREALTYSCHOOL.COM,PO Box 5971,,SCOTTSDALE,AZ,85261,Tim S. Keller,(602) 678-5100,school@irealtyschool.com,www.irealtyschool.com,Private School,1/31/2025 12:00:00 AM,True,False,True
S99-0002,URBAN LAND INSTITUTE - ARIZONA DISTRICT,5090 N. 40th Street,Suite 210,Phoenix,AZ,85018,DEBRA SYDENHAM,(602) 449-7916,arizona@uli.org,www.anzona.uli.org,Independent Organization,2/28/2023 12:00:00 AM,True,False,False
P-0345,TUCSON SCHOOL OF REAL ESTATE,7290 E. BROADWAY #112,,Tucson,AZ,85710,Frank Ferst,(520) 444-9377,notedoctor@aol.com,Tucsonschoolofrealestate.com,Private School,2/29/2024 12:00:00 AM,True,True,False
S01-0009,M & M SEMINARS LLC,849 S ROSEMONT CT,,GILBERT,AZ,85296,Margaret Peck,(602) 989-8326,marge@mpeck.com,m-mseminars.com,Private School,7/31/2025 12:00:00 AM,True,False,False
S01-0010,BOHLER INSTITUTE FOR CONTINUING EDUCATION (THE),3359 Suzie Lane,,Lake Havasu City,AZ,86404,Karen E. Bohler,(928) 208-1442,karenbohler003@gmail.com,www.RealEstateED.com,Private School,7/31/2025 12:00:00 AM,True,True,True
C-0511,YAVAPAI COLLEGE,1100 East Sheldon Street,,Prescott,AZ,86301,Barbara Wing,(928) 776-2311,russ.roberts@yc.edu,www.yc.edu,College,,True,True,False
C-0505.1,MESA COMMUNITY COLLEGE,1833 West Southern Avenue,,Mesa,AZ,85202,,(480) 461-7711,collins@mail.mc.maricopa.edu,,College,,True,False,False
C-0511.1,YAVAPAI COLLEGE,601 Blackhills Drive,,Clarkdale,AZ,86324,TOM SCHUMACHER-928-634-6513,(928) 634-6533,tom_schumacher@yc.edu,,College,,False,False,False
S02-0002,SOUTHWEST FAIR HOUSING TRAINING CENTER,177 N CHURCH AVE STE 1104,,Tucson,AZ,85701,CHERYAL "CHERI" HORBACZ,(520) 798-1568,cheri@swfhc.com,www.swfhc.com,Private School,3/31/2026 12:00:00 AM,True,False,False
I-3006,ARIZONA MULTIHOUSING ASSOCIATION,818 N 1st STREET,,PHOENIX,AZ,85004,MELISSA LANOUETTE,(602) 296-6205,mlanouette@azmultihousing.org,www.azmultihousing.org,Private School,1/31/2026 12:00:00 AM,True,False,False
P-1066,C DAVID MCVAY SCHOOLS,3412 E. Dunlap Ave.,,Phoenix,AZ,85028,C. David Mcvay,(602) 714-6228,dmcvay@cdavidmcvayschool.com,www.cdavidmcvayschool.com,Private School,12/31/2023 12:00:00 AM,True,False,True
P-1171,FIRST AMERICAN EAGLE UNIVERSITY,"9000 E. Pima Parkway Center, STE #100",,Scottsdale,AZ,85258,Scott Goddard,(602) 685-7007,sgoddard@firstam.com,www.thinkfirstamerican.com,Private School,6/30/2024 12:00:00 AM,True,False,False
P-1211,NANCY SEAGO SEMINARS,4564 W. DUBLIN ST,,CHANDLER,AZ,85226,Nancy Seago,(602) 463-1325,nancyseagoseminar@gmail.com,,Private School,4/30/2024 12:00:00 AM,True,False,False
R-2001,ARIZONA ASSOCIATION OF REALTORS,"255 E Osborn Rd, Suite 200",,Phoenix,AZ,85012-2327,Ms. Barbara Freestone,(602) 248-7787,barbfreestone@aaronline.com,www.aaronline.com,Realtor Association,8/31/2022 12:00:00 AM,True,False,False
R-2009,"WEST AND SOUTHEAST REALTORS OF THE VALLEY, dba WeSERV",1733 E NORTHROP BLVD.,,CHANDLER,AZ,85286,TONYA DESKINS,(480) 477-5882,education@weserv.realtor,www.weserv.realtor,Realtor Association,3/31/2024 12:00:00 AM,True,False,False
R-2013,LAKE HAVASU ASSOCIATION OF REALTORS,2293 Swanson Avenue,,Lake Havasu City,AZ,86403,KAREN BOHLER,(928) 855-8423,realestateED.com@gmail.com,www.havasurealtors.com,Realtor Association,11/30/2024 12:00:00 AM,True,False,False
R-2020, RAISE THE BAR ,"8600 E ANDERSON Drive, Ste#200",,Scottsdale,AZ,85255,"	LAURA GRADY, ANNALISA MORENO",(480) 945-2651,annalisa@scottsdalerealtors.org ,www.realestateschoolarizona.com,Realtor Association,5/31/2024 12:00:00 AM,True,True,False
R-2024,"TUCSON ASSOCIATION OF REALTORS, INC.",2445 N TUCSON BLVD,,TUCSON,AZ,85716,ELIZABETH NEYNABER,520-327-4218,bethann@tucsonrealtors.org,www.tucsonrealtors.org,Realtor Association,1/31/2025 12:00:00 AM,True,False,False
U-0701,ARIZONA STATE UNIVERSITY,P O BOX 874206,,TEMPE,AZ,85287,WIMBERLY DORAN,(480) 965-8517,wimberly.doran@asu.edu,,University,3/31/2025 12:00:00 AM,True,True,False
S03-0002,JOHN DYER SCHOOL OF REAL ESTATE (THE),3911 E. DAHLIA,,PHOENIX,AZ,85032,John R. Dyer,(623) 206-2115,johndyerschool@gmail.com,,Private School,1/31/2023 12:00:00 AM,True,False,False
S06-0025,JAG EDUCATIONAL TRAINING SYSTEMS,1641 E. OSBORN RD  #8,,PHOENIX,AZ,85016,JAY JOSEPHS,(602) 955-4050,jay@jaginc.net,WWW.JAGINC.NET,Private School,12/31/2022 12:00:00 AM,True,False,False
S07-0012,"CAREER DEVELOPMENT CENTER, LLC, A DELAWARE LIMITED LIABILITY",7975 N. HAYDEN RD #D-105A,,SCOTTSDALE,AZ,85258,ALISON BRUNNER,(480) 850-3022,ALISON.BRUNNER@AZMOVES.COM,coldwellbankerhomes.com/arizona,Private School,5/30/2023 12:00:00 AM,True,False,False
S13-0016,A.R.T.S SCHOOL OF REAL ESTATE,3231  E. ARROYO CHICO,,TUCSON,AZ,85716,DERRICK POLDER,(520) 991-0893,dp@thepoldergroup.com,,Private School,9/30/2025 12:00:00 AM,True,False,False
S14-0001,ARIZONA SCHOOL OF REAL ESTATE & BUSINESS,7350 N DOBSON RD STE 120,,SCOTTSDALE,AZ,85256,CHRISTINE LAPP,(480) 946-5388,compliance@asreb.com,www.asreb.com,Private School,2/28/2026 12:00:00 AM,True,True,True
S14-0004,WE SELL REAL ESTATE SCHOOL OF REAL ESTATE,9915 W Bell Rd #169,,Sun City,AZ,85351,LIZ RECCHIA,(602) 332-3972,liz@wesellrealestate.com,www.WSREschoolofrealestate.com,Private School,5/31/2022 12:00:00 AM,True,True,False
S14-0008,"REALTY-UNIVERSITY, LLC DBA US REALTY UNIVERSITY",3100 W RAY RD STE 201,,CHANDLER,AZ,85226,KIRSTEN SHAFER,(480) 540-3826,kirsten@hometoarizona.com,www.realty-school.com,Private School,7/31/2022 12:00:00 AM,True,True,False
S14-0010,ARIZONA MOUNTAIN SCHOOL OF REAL ESTATE,PO BOX 16087,,BELLEMONT,AZ,86015,KURT WILDERMUTH,(928) 814-8405,kurt@azmountainliving.com,www.azmtschoolofrealestate.com,Private School,9/30/2022 12:00:00 AM,True,True,False
S14-0011,"GREENHAB, LLC DBA ELITE EDUCATION",8032 N. 8TH AVE,,PHOENIX,AZ,85021,MELISA CAMP,(480) 703-3202,mcamp@hsmove.com,greenhomesphoenix.com/elite-education.html,Private School,10/31/2022 12:00:00 AM,True,False,True
S14-0012,THE NEXT STEP INC,14635 N KIERLAND BLVD STE 160,,SCOTTSDALE,AZ,85254,MARY SAND,(480) 505-6300,thenextsteptnc@gmail.com,,Private School,10/31/2022 12:00:00 AM,True,True,False
S14-0013,"MCKISSOCK, LLC",12977 North Forty DR.Ste 108,,St. Louis,MO,63141,Matthew McKissock,(800) 328-2008,jackie.vincent@mckissock.com,www.mckissock.com,Private School,12/31/2022 12:00:00 AM,True,False,True
S15-0001,PERFORMANCE SCHOOL OF REAL ESTATE,1321 E. WELDON AVE.,,PHOENIX,AZ,85014,DANA BOOTH,(602) 692-3393,dana.booth@gmail.com,danabooth.com,Private School,1/31/2023 12:00:00 AM,True,False,False
S15-0003,ENTERPRISING SCHOOL OF REAL ESTATE,8350 E MCKELLIPS RD,,SCOTTSDALE,AZ,85057,ERIC BOHLANDER,(480) 299-1520,ericboh@yahoo.com,enterprisingschoolofrealestate.com,Private School,2/28/2023 12:00:00 AM,True,False,False
S15-0012,"4ICE.COM, LLC DBA INSTITUTE FOR CONTINUING EDUCATION",5829 W SAM HOUSTON PKY N #1206,,HOUSTON,TX,77041-4743,BETH TIGNER,(281) 668-8833,ice@4ice.com,www.4ice.com,Private School,9/30/2023 12:00:00 AM,True,False,True
S15-0014,ARIZONA LIVING SCHOOL OF REAL ESTATE,135 Park Avenue,,LAKE HAVASU CITY,AZ,86403,KAREN BOHLER,(928) 453-6111,karenbohler003@gmail.com,www.arizonalivingschoolofrealestate.com,Private School,11/30/2023 12:00:00 AM,True,True,False
S16-0001,PREMIER FINANCIAL SOLUTIONS LLC,11365 E. Greenway Rd.,,Scottsdale,AZ,85255,RYAN HALLDORSON,(602) 793-7204,ryanh@vipmtginc.com,,Private School,1/31/2024 12:00:00 AM,True,False,False
S16-0004,WHITE MOUNTAIN REAL ESTATE SCHOOL,"1400 E WOOLFORD RD, STE B",,SHOW LOW,AZ,85901,ROBIN JAEGER,(928) 537-1145,ADVROBIN07@GMAIL.COM,,Private School,6/30/2024 12:00:00 AM,True,True,False
S14-0001.2,ARIZONA SCHOOL OF REAL ESTATE & BUSINESS,"18185 N 83RD AVE BUILDING D, STE 101",,GLENDALE,AZ,85308,CHRISTINE LAPP,(480) 946-5388,compliance@asreb.com,www.asreb.com,Private School,2/28/2026 12:00:00 AM,True,True,True
P-1171.10,FIRST AMERICAN EAGLE UNIVERSITY,"4435 E CHANDLER BLVD, #100",,PHOENIX,AZ,85048,MARTHA BARNEWOLT,,,,Private School,6/30/2024 12:00:00 AM,True,False,False
P-1171.12,FIRST AMERICAN EAGLE UNIVERSITY,"1528 E WILLIAMS FIELD RD, #101",,GILBERT,AZ,85295,MARTHA BARNEWOLT,,,,Private School,6/30/2024 12:00:00 AM,True,False,False
P-1171.14,FIRST AMERICAN EAGLE UNIVERSITY,"20241 N 67TH AVE, #A-2",,GLENDALE,AZ,85308,MARTHA BARNEWOLT,,,,Private School,6/30/2024 12:00:00 AM,True,False,False
P-1171.15,FIRST AMERICAN EAGLE UNIVERSITY,"3048 E BASELINE RD, #101",,MESA,AZ,85204,MARTHA BARNEWOLT,,,,Private School,6/30/2024 12:00:00 AM,True,False,False
P-1171.16,FIRST AMERICAN EAGLE UNIVERSITY,"2201 E CAMELBACK RD, #120",,PHOENIX,AZ,85016,MARTHA BARNEWOLT,,,,Private School,6/30/2024 12:00:00 AM,True,False,False
P-1171.17,FIRST AMERICAN EAGLE UNIVERSITY,4500 S LAKESHORE DR< #130,,TEMPE,AZ,85282,MARTHA BARNEWOLT,,,,Private School,6/30/2024 12:00:00 AM,True,False,False
S16-0010,ASSOCIATE REALTY INC. dba  A REAL ESTATE SCHOOL,,,SCOTTSDALE,AZ,85259,CAROLYN NECKELS,4809453000,Neckelsaz@yahoo.com,aresschool.com,Private School,9/30/2024 12:00:00 AM,True,True,False
S17-0002,LONG UPTOWN ACADEMY LLC,310 E THOMAS ROAD,,PHOENIX,AZ,85012,MELINDA ESLINGER,(602) 999-6126,melindae@longrealty.com,,Private School,1/31/2025 12:00:00 AM,True,True,False
S17-0004,FIRST AMERICAN EXCHANGE COMPANY,"8311 W. SUNSET RD, #100",,LAS VEGAS,NV,89113,CARMINE DIFULVIO,7028499946,pro1031@yahoo.com,,Private School,2/28/2025 12:00:00 AM,True,False,False
S17-0005,PROFESSIONAL SCHOOL FOR CONTINUED EDUCATION,13805 N 111TH AVE,,SUN CITY,AZ,85351,DIANA  EHRLICH,(623) 374-3860,ehrlich.pace@gmail.com,,Private School,2/28/2025 12:00:00 AM,True,False,False
S17-0009,"ACEABLE, INC DBA ACEABLE REAL ESTATE SCHOOL",610 WEST 5TH STREET SUITE 603,,AUSTIN,TX,78701, Blake Garrett,(512) 522-4174,support@aceable.com,,Private School,4/30/2025 12:00:00 AM,False,False,True
S17-0010,ENAVA ENTERPRISES LLC DBA YUMA REAL ESTATE ACADEMY,661 S 4TH AVE,,YUMA,AZ,85364,ENRIQUE RASCON,(928) 750-0490,enrique@exitrealtyyuma.com,,Private School,4/30/2025 12:00:00 AM,True,True,False
S17-0012,"FEE JUSTICE, LLC DBA FS EDUCATION","8655 E. Via de Ventura, Suite G-225",,Scottsdale,AZ,85258,"SEAN ST. CLAIR, ANDREW FOWLER, BRIAN LOCKER",(480) 788-9911,stclair@fowlerstclair.com,,Private School,5/31/2025 12:00:00 AM,True,False,False
S14-0001.3,ARIZONA SCHOOL OF REAL ESTATE & BUSINESS,8476 W THUNDERBIRD RD STE 202,,PEORIA,AZ,85381,CHRISTINE LAPP,(480) 946-5388,compliance@asreb.com,www.asreb.com,Private School,2/28/2026 12:00:00 AM,True,True,True
S17-0015.1,"ARIZONA HOME SERVICES, LLC DBA CE'S THE DAY",900 E. RIVER ROAD,,TUCSON,AZ,85718,CATHY ERCHULL,(520) 918-5444,cathye@longrealty.com,ww.longrealty.com,Private School,6/30/2025 12:00:00 AM,True,False,False
S17-0017,PRIMARY SCHOOL OF REAL ESTATE,11232 W. TETHER TRAIL,,PEORIA,AZ,85383,JENIFER KRICHBAUM,(602) 576-0911,primaryreschool@gmail.com,,Private School,6/30/2025 12:00:00 AM,True,False,False
S17-0019,"COMPUTER MASTERS, LLC DBA STARLIGHTCE",7715 PLACITA DE POSADA,,TUCSON,AZ,85704,LAWRENCE VOGLER,(520) 742-7240,larry85704@yahoo.com,www.StarlightCE.com,Private School,8/31/2025 12:00:00 AM,False,False,True
S17-0020,"AT YOUR PACE ONLINE, LLC",1383 2ND AVENUE,,GOLD HILL,OR,97525,MICHAEL MELVIN,(877) 724-6150,CONTACT@ATYOURPACEONLINE.COM,www.ayporealestate.com/arizona-real-estate-continuing-education,Private School,8/31/2025 12:00:00 AM,True,False,True
S17-0024,AZ PROPERTY TRAINING,705 MOUNTAIN SKY AVE,,PHOENIX,AZ,85048,TIM O'NEALL,(480) 694-0650,tim@inspectionsaz.com,www.inspectionsaz.com,Private School,12/31/2025 12:00:00 AM,True,False,False
S18-0001,AMERICAN REALTY ACADEMY LLC,15650 N BLACK CANYON HIGHWAY STE B235,,PHOENIX,AZ,85053,JEFFREY DAVIS,888-777-1770,admin@americanrealtyacademy.com,www.americanrealtyacademy.com/,Private School,1/31/2026 12:00:00 AM,True,True,True
S18-0003,REAL ESTATE STAGING ASSOCIATION INC DBA RESA,613 OLD HIGHWAY 19,,COLUMBUS,NC,28722,SHELL BRODNAX,209-623-5809,shell@resa-hq.org,http://RealEstateStagingAssociation.com,Private School,3/31/2026 12:00:00 AM,True,False,False
S14-0001.5,ARIZONA SCHOOL OF REAL ESTATE & BUSINESS,"14239 WEST BELL ROAD, SUITE 116",,SURPRISE,AZ,85374,CHRISTINE LAPP,(480) 946-5388,COMPLIANCE@ASREB.COM,,Private School,2/28/2026 12:00:00 AM,True,True,True
S18-0009,DIAMOND RESORTS REAL ESTATE ACADEMY LLC,2030 WEST STATE ROUTE 89A,,SEDONA,AZ,86336,MICHAEL SHALMY,(480) 628-9053,drrealestateacademy@gmail.com,,Private School,6/30/2022 12:00:00 AM,True,True,False
S18-0010,REAL ESTATE CONTINUING EDUCATION TRAINING,2093 N. SANTIANA PLACE,,CASA GRANDE,AZ,85122,BRUCE BOULDIN,(520) 233-3393,bruce.bouldin@gmail.com,,Private School,7/31/2022 12:00:00 AM,True,False,False
S18-0016,HOGAN SCHOOL OF REAL ESTATE LLC,4023 EAST GRANT ROAD,,TUCSON,AZ,85712,CHRISTINE LAPP,520 327 6849,compliance@hoganschool.com,www.HoganSchool.com,Private School,12/31/2022 12:00:00 AM,True,True,True
S18-0013,"USA HOMEOWNERSHIP FOUNDATION, INC",462 CORONA MALL SUITE 102,,CORONA,CA,92879,SON NGUYEN,(951) 444-7359,mvhc@VAREP.NET,varep.net,Private School,8/31/2022 12:00:00 AM,True,False,False
S19-0006,SUN CACTUS REALTY LLC DBA SUN CACTUS SCHOOL OF REAL ESTATE,"18444 N. 25TH AVENUE, STE 420",,PHOENIX,AZ,85023,SUSAN NICOLSON,(623) 680-6820,SUSAN@SUNCACTUSREALTY.COM,,Private School,2/28/2023 12:00:00 AM,True,False,False
S19-0007,"DF INSTITUTE, LLC dba KAPLAN REAL ESTATE EDUCATION","332 FRONT STREET SOUTH, SUITE 501",,LA CROSSE,WI,54601,LISA GOYETTE,608 518-4543,lisa.goyette@kaplan.com,www.kapre.com,Private School,4/30/2023 12:00:00 AM,True,False,False
S19-0022,REAL ESTATE CE SOLUTIONS,11139 W VENTURI DR,,SUN CITY,AZ,85351,JANIE FOITAG,602 999 2323,jfoitag@gmail.com,,Private School,9/30/2023 12:00:00 AM,True,False,False
S19-0018.5,COLLEGE OF REAL ESTATE CORPORATION,719 E COTTONWOOD LN,,CASA GRANDE,AZ,85122,EARNEST GUILL,,,,Private School,7/31/2023 12:00:00 AM,True,True,True
S19-0018.6,COLLEGE OF REAL ESTATE CORPORATION,"1600 MCCOLLOCH BLVD, STE 1A",,LAKE HAVASU,AZ,86403,EARNEST GUILL,,,,Private School,7/31/2023 12:00:00 AM,True,True,True
S19-0018.9,COLLEGE OF REAL ESTATE CORPORATION,2005 W HAPPY VALLEY RD,,PHOENIX,AZ,85085,EARNEST GUILL,,,,Private School,7/31/2023 12:00:00 AM,True,True,True
S19-0018.10,COLLEGE OF REAL ESTATE CORPORATION ,2340 E BEARDSLEY RD STE 240,,PHOENIX,AZ,85024,EARNEST GUILL,,,,Private School,7/31/2023 12:00:00 AM,True,True,True
S19-0018.12,COLLEGE OF REAL ESTATE CORPORATION,2600 W WICKENBURG WAY,,WICKENBURG,AZ,85390,EARNEST GUILL,,,,Private School,7/31/2023 12:00:00 AM,True,True,True
S19-0018.14,COLLEGE OF REAL ESTATE CORPORATION,3303 E BASELINE RD #119,,GILBERT,AZ,85234,EARNEST GUILL,,,,Private School,7/31/2023 12:00:00 AM,True,True,True
S19-0018.15,COLLEGE OF REAL ESTATE CORPORATION,3668 N ANTHEM WAY,,ANTHEM,AZ,85086,EARNEST GUILL,,,,Private School,7/31/2023 12:00:00 AM,True,True,True
S19-0018.16,COLLEGE OF REAL ESTATE CORPORATION,4330 W UNION HILLS RD #B9,,GLENDALE,AZ,85308,EARNEST GUILL,,,,Private School,10/31/2023 12:00:00 AM,True,True,True
S19-0018.18,COLLEGE OF REAL ESTATE CORPORATION,4813 W DESERT HILL DR,,GLENDALE,AZ,85304,EARNEST GUILL,,,,Private School,7/31/2023 12:00:00 AM,True,True,True
S19-0018.19,COLLEGE OF REAL ESTATE CORPORATION,4830 W GWEN ST,,LAVEEN,AZ,85339,EARNEST GUILL,,,,Private School,7/31/2023 12:00:00 AM,True,True,True
S19-0018.22,COLLEGE OF REAL ESTATE CORPORATION,6201 E CAVECREEK RD STE B,,CAVECREEK,AZ,85331,EARNEST GUILL,,,,Private School,7/31/2023 12:00:00 AM,True,True,True
S19-0018.23,COLLEGE OF REAL ESTATE CORPORATION,8433 N BLACK CANYON HWY #100,,PHOENIX,AZ,85021,EARNEST GUILL,,,,Private School,7/31/2023 12:00:00 AM,True,True,True
S19-0018.24,COLLEGE OF REAL ESTATE CORPORATION,8930 E RAINTREE DR STE 100,,SCOTTSDALE,AZ,85260,EARNEST GUILL,,,,Private School,7/31/2023 12:00:00 AM,True,True,True
S20-0002,HIGHER LEARNING CE ,"10810 N. TATUM BLVD., STE 102-805",,PHOENIX,AZ,85028,"Michelle C. Cottingham, Jenna Gable",480-907-4786,TheHouse@TheHouseOfEmme.com,,Private School,1/31/2024 12:00:00 AM,True,True,False
S14-0007,THE JOSEPH COWART REAL ESTATE SCHOOL,3349 E REDFIELD ROAD,,GILBERT,AZ,85234,JOSEPH COWART,(602) 721-0262,jtcowartarizona@gmail.com,www.cowartschoolofrealestate.com,Private School,6/30/2022 12:00:00 AM,True,False,False
S15-0006,THE REAL ESTATE RESOURCE CENTER LLC,475 E. Cottonwood Ln.,,Casa Grande,AZ,85122,TINA CRAMP,(520) 201-6899,contact@rercaz.com,www.rercaz.com,Other,3/31/2023 12:00:00 AM,True,True,False
S15-0013,ARIZONA APPRAISAL SEMINARS & CLASSES,14530 N 90TH LANE,,PEORIA,AZ,85381,JOANNA CONDE,(623) 933-0797,aascedu@cox.net,www.aascedu.com,Private School,10/31/2023 12:00:00 AM,True,False,False
P-1171.9,FIRST AMERICAN EAGLE UNIVERSITY,"10320 W MCDOWELL RD, BLDG G-7022",,AVONDALE,AZ,85392,MARTHA BARNEWOLT,(623) 936-8001,,,Private School,6/30/2024 12:00:00 AM,True,False,False
P-1171.11,FIRST AMERICAN EAGLE UNIVERSITY,13212 N SAGUARO BLVD #120,,FOUNTAIN HILLS,AZ,85268,,,,,Private School,6/30/2024 12:00:00 AM,True,False,False
P-1171.13,FIRST AMERICAN EAGLE UNIVERSITY,14624 N SCOTTSDALE RD #150,,SCOTTSDALE,AZ,85254,MARTHA BARNEWOLT,,,,Private School,6/30/2024 12:00:00 AM,True,False,False
S16-0005,PEAK PERFORMANCE SCHOOL OF REAL ESTATE LLC,13352 N 83RD AVE #103,,PEORIA,AZ,85381,SALLY LIDDICOAT,(623) 806-1100,training@azppre.com,www.PeakPerformanceSchoolOfRealEstate.com,Private School,7/31/2024 12:00:00 AM,True,True,False
S16-0007,HOLMAN & HOLMAN LLC DBA THE COURSE COLLECTIVE,1815 W VERDE LANE,,PHOENIX,AZ,85015,ERIN HOLMAN,(602) 549-3746,erin@holmangroupaz.com,www.thecoursecollective.com,Private School,8/31/2025 12:00:00 AM,True,False,False
S16-0009,MPH SCHOOL OF REAL ESTATE,9558 WEST GAMBIT TRAIL,,PEORIA,AZ,85383,MICHAEL HOFSTETTER,(602) 316-3096,azmph@me.com,,Private School,9/30/2024 12:00:00 AM,True,False,False
S17-0015,"ARIZONA HOME SERVICES, LLC DBA CE'S THE DAY",900 E RIVER RD,,TUCSON,AZ,85718,CATHY ERCHULL,(520) 918-5444,cathye@longrealty.com,www.LongRealty.com,Private School,6/30/2025 12:00:00 AM,True,False,False
S14-0001.4,ARIZONA SCHOOL OF REAL ESTATE & BUSINESS,15003 W. BELL RD STE 100,,SUPRISE,AZ,85374,CHRISTINE LAPP,(480) 946-5388,compliance@asreb.com,www.asreb.com,Private School,2/28/2026 12:00:00 AM,True,True,True
S16-0005.1,PEAK PERFORMANCE SCHOOL OF REAL ESTATE LLC,2600 S RURAL RD #A,,Tempe,AZ,85282,SALLY LIDDICOAT,,,,Private School,7/31/2024 12:00:00 AM,True,True,False
S16-0005.2,PEAK PERFORMANCE SCHOOL OF REAL ESTATE LLC,3011 S Lindsay #102,,Gilbert,AZ,85295,SALLY LIDDICOAT,,,,Private School,7/31/2024 12:00:00 AM,True,False,False
S16-0005.3,PEAK PERFORMANCE SCHOOL OF REAL ESTATE LLC,6268 S KINGS RANCH RD #12,,GOLD CANYON,AZ,85118,SALLY LIDDICOAT,,,,Private School,7/31/2024 12:00:00 AM,True,True,False
S18-0004,FINANCE OF AMERICA SCHOOL OF REAL ESTATE,625 W. SOUTHERN AVE,#E17,MESA,AZ,85210,LORRAINE GERACI,845-541-1147,lgeraci@fareverse.com,www.fareverse.com,Private School,3/31/2022 12:00:00 AM,True,False,False
S18-0006,THE STILL GROUP,PO BOX 99129,,TACOMA,WA,98796,JOSEPH STILL,(800) 648-8475,mail@stillgroup.com,,Private School,4/30/2022 12:00:00 AM,True,False,False
S18-0011,"PREFFERRED SYSTEMS, INC",1314 W. 6TH STREET,,ERIE,PA,16505,JILIAN KRAUSE,8144560406,info@preferrededucation.com,www.preferrededucation.com,Private School,8/31/2022 12:00:00 AM,True,False,False
S18-0015,SOUTHWEST LIFESTYLES LLC DBA BENCHMARK SCHOOL OF REAL ESTATE,513 N. BEAVER ST.,,FLAGSTAFF,AZ,86001,JEFFREY HOOVER,(928) 699-1962,Jeff@benchmarkRESchool.com,,Private School,8/31/2022 12:00:00 AM,False,False,False
S19-0001,"AMERICANA ARIZONA, LLC DBA  ARIZONA REAL ESTATE EDUCATION",14635 N. KIERLAND BLVD #160,,SCOTTSDALE,AZ,85254,MARY SAND,(480) 505-6300,mary.sand@bhhsaz.com,,Private School,1/31/2023 12:00:00 AM,True,False,False
S19-0002,CERTA LLC,9876 E JASMINE DR,,SCOTTSDALE,AZ,85260,KEVIN KOSHKO,(844) 238-7444,kevink@certa.net,www.certa.net,Private School,1/31/2023 12:00:00 AM,True,False,False
S19-0003,"SMART EDUCATORS, LLC",511 E. LAUREN ASHLEY PLACE,,TUCSON,AZ,85737,GLEN SMART,(520) 245-8830,tucsonglen@gmail.com,,Private School,1/31/2023 12:00:00 AM,True,False,False
S19-0005,SCHOOL OF REAL ESTATE & COACHING,6526 E Cypress Circle,,Scottsdale,AZ,85257,MICHAEL VELASCO,(480) 200-2914,MICHAEL@finishmyce.com,www.finishmyce.com,Private School,2/28/2023 12:00:00 AM,True,False,False
S19-0008,EDUCATE2EARN ACADEMY LLC DBA MYCE ACADEMY,11445 E. VIA LINDA 2-324,,SCOTTSDALE,AZ,85259,RICHARD FLANAGAN,833 692 3669,terrye@educate2earn.com,,Private School,4/30/2023 12:00:00 AM,True,False,False
S19-0013,ALLIANCE LEARNING INSTITUTE LLC,12636 N 58TH DR.,,GLENDALE,AZ,85304,ALI AL-ASADY,(623) 332-4116,ali@alialasady.com,www.PhoenixGreenHomeConcepts.com,Private School,5/31/2023 12:00:00 AM,True,False,False
S19-0014,"4 PEAKS REAL ESTATE SCHOOL, LLC",P.O. BOX 2142,,FLAGSTAFF,AZ,86003,REBECCA MCBRIDE,928-606-1385,4peaksreschool@gmail.com,,Private School,6/30/2023 12:00:00 AM,True,True,False
S19-0016,REAL ESTATE CAREER DEVELOPMENT,1582 MARIPOSA WAY,,BULLHEAD CITY,AZ,86442,ANGELA HOLLIDAY,928 692 6525,recdevelopment@yahoo.com,recdevelopment.com,Private School,7/31/2023 12:00:00 AM,True,True,False
S19-0017,PDH ACADEMY,,,PEWAUKEE,WI,53072,MARK NEWCOMER,262-409-4270,pdhacademy@gmail.com,pdhrealestate.com,Private School,7/31/2023 12:00:00 AM,False,True,False
S19-0018,COLLEGE OF REAL ESTATE CORPORATION,8821 N. 7TH ST #210,,PHOENIX,AZ,85020,EARNEST GUILL,(602) 765-0500,ernie@collegeofrealestate.com,www.collegeofrealestate.com,Private School,7/31/2023 12:00:00 AM,True,True,True
S19-0018.1,COLLEGE OF REAL ESTATE CORPORATION,,,CHANDLER,AZ,85225,EARNEST GUILL,,,,Private School,7/31/2023 12:00:00 AM,True,True,True
S19-0018.2,COLLEGE OF REAL ESTATE CORPORATION,,,PRESCOTT,AZ,86301,EARNEST GUILL,,,,Private School,7/23/2023 12:00:00 AM,True,True,True
S19-0018.3,COLLEGE OF REAL ESTATE CORPORATION,147 W RIVERSIDE DR,,PARKER,AZ,85344,EARNEST GUILL,,,,Private School,7/31/2023 12:00:00 AM,True,True,True
S19-0018.4,COLLEGE OF REAL ESTATE CORPORATION ,281 W 24TH ST SUITE 126A,,YUMA,AZ,85364,EARNEST GUILL,,,,Private School,7/31/2023 12:00:00 AM,True,True,True
S19-0018.7,COLLEGE OF REAL ESTATE CORPORATION,1781 E. HWY 69 #39,,PRESCOTT,AZ,86301,EARNEST GUILL,,,,Private School,7/31/2023 12:00:00 AM,True,True,True
S19-0018.8,COLLEGE OF REAL ESTATE CORPORATION,1900 N COUNTRY CLUB DR,,FLAGSTAFF,AZ,86004,EARNEST GUILL,,,,Private School,10/2/2023 12:00:00 AM,True,True,False
S19-0018.11,COLLEGE OF REAL ESTATE CORPORATION ,2500 S POWER RD STE 124,,MESA,AZ,85209,EARNEST GUILL,,,,Private School,7/31/2023 12:00:00 AM,True,True,True
S19-0018.13,COLLEGE OF REAL ESTATE CORPORATION,2765 HWY 95,,BULLHEAD CITY,AZ,86442,EARNEST GUILL,,,,Private School,7/31/2023 12:00:00 AM,True,True,True
S19-0018.25,COLLEGE OF REAL ESTATE CORPORATION ,14201 N HAYDEN RD STE A-3,,SCOTTSDALE,AZ,85260,EARNEST GUILL,,,,Private School,7/31/2023 12:00:00 AM,True,True,True
S19-0018.26,COLLEGE OF REAL ESTATE CORPORATION,20033 N 19TH AVE STE 121,,PHOENIX,AZ,85027,EARNEST GUILL,,,,Private School,7/31/2023 12:00:00 AM,True,True,True
S19-0023,"ONLINEED, INC.",7405 SW BEVELAND,,PORTLAND,OR,97223,HARLOW SPAAN,503 670 9278,lori@onlineed.com,www.onlineed.com,Private School,10/31/2023 12:00:00 AM,True,True,True
R-2009.1,WEST AND SOUTHEAST REALTORS OF THE VALLEY ,9001 W UNION HILL DR #8,,PEORIA,AZ,85382,TONYA DESKINS,,,,Realtor Association,3/31/2024 12:00:00 AM,True,False,False
S20-0007,PRESCOTT AREA ASSOCIATION OF REALTORS,3719 Karicio Ln,,Prescott,AZ,86303,MARCY ROGERS,928-445-2663,marcy@paar.org,www.paar.org,Private School,7/31/2024 12:00:00 AM,True,False,False
S20-0008,R E A P LLC  dba REAL ESTATE ACADEMY PROFESSIONALS,10950  N. LA CANADA #19306,,TUCSON,AZ,85737,LARRY VOGLER,520-861-8032,larry85704@yahoo.com,reapacademy. org,Private School,8/31/2024 12:00:00 AM,True,False,False
P-1171.18,First American Eagle University (GREEN VALLEY),,,GREEN VALLEY,AZ,85622,,520-625-1095,,sgoddard@firstam.com,Private School,10/31/2024 12:00:00 AM,True,False,False
S20-0010,"BLUE FOX SCHOOL OF REAL ESTATE, LLC",7368 N. LA CHOLLA BLVD,,TUCSON,AZ,85741,STEVE SCHULTZ, 520-780-7888,steve@bluefoxproperties.com,www.BlueFoxSchool.com,Private School,11/30/2024 12:00:00 AM,True,False,False
S20-0014,OCOTILLO EDUCATION ,6837 E. LOMA LAND DR.,,SCOTTSDALE,AZ,85257,KERI MEANS,480-213-2473,ocotilloeducation@gmail.com,,Private School,12/31/2024 12:00:00 AM,True,False,False
S21-0001,"THE CE SHOP, LLC","5670 GREENWOOD PLAZA BLVD., SUITE 420",,GREENWOOD VILLAGE,CO,80111,MICHAEL MATOUSH,720-390-3805,compliance@theceshop.com,WWW.theceshop.com,Private School,1/31/2025 12:00:00 AM,False,False,True
S21-0003,ARIZONA REAL ESTATE INSTITUTE,33823 N. 2ND STREET,,PHOENIX,AZ,85085,BILL IANNELLI,602-463-9166,bill@azrealestatematters.com,,Private School,4/30/2025 12:00:00 AM,True,False,False
S18-0005.3,REAL ESTATE CAREER CONSULTANTS LLC dba REAL ESTATE CAREER CONSULTANTS,"2168 E. Williams Field Rd., Suite 210",,Gilbert,AZ, 85295,SHARON CARSTENS,480-628-9053,brokerandtrainer@gmail.com,www.RECC.school,Private School,3/31/2026 12:00:00 AM,True,False,False
S19-0011,GENTRY UNIVERSITY,3303 E. BASELINE RD B8#119,,GILBERT,AZ,85234,CLYDE MCLELLAN II,(480) 750-9910,ANDREW@GENTRYAZ.COM,,Private School,5/31/2023 12:00:00 AM,True,True,False
S19-0012,JOURNEY REAL ESTATE TRAINING LLC,3851 E. VALLEJO DR,,GILBERT,AZ,85298,BRANDY KARCZEWSKI,4802500163,BRANDYKARCZEWSKI@GMAIL.COM,,Private School,5/31/2023 12:00:00 AM,True,False,False
S18-0001.1,AMERICAN REALTY ACADEMY,"7308 E. DEER VALLEY ROAD, SUITE 100",,Scottsdale,AZ,85255,JEFFREY DAVIS,,admin@americanrealtyacademy.com,,Private School,1/31/2026 12:00:00 AM,True,True,True
S20-0009,SALLY IN THE VALLEY,37811 N. 3RD ST.,,DESERT HILLS,AZ,85086,SALLY IRELAND,480-269-6584,SALLYBIRELAND@GMAIL.COM,sallyinthevalley.com,Private School,8/31/2024 12:00:00 AM,True,False,False
S21-0006,SECURITY REAL ESTATE  SCHOOL,"9500 HILLWOOD DR., STE 110",,LAS VEGAS,NV,89134,CARMINE DIFULVIO,702-476-6400,cdifulvio@security1st.com,cdifulvio@security1st.com,Private School,9/30/2025 12:00:00 AM,True,False,False
S21-0008,"AMERICAN DREAM REAL ESTATE SCHOOL, LLC dba Thrive Real Estate Education",1510 Navajo Street,,Cortez,CO,81321-2552,TODD CORDREY,844-223-7326,States@AmericanDreamRESchool.com,ThriveRealEstateEducation.com,Private School,12/31/2025 12:00:00 AM,True,False,False
S22-0003,DRAW A DOOR SCHOOL OF REAL ESTATE,10024 N 28th Pl,,Phoenix,AZ,85028,Butch Leiber,602-390-1399,butch@talkwithbutch.com,,Private School,3/31/2026 12:00:00 AM,True,True,True
S19-0014.1,"4 PEAKS REAL ESTATE SCHOOL, LLC ","2708 N. 4TH ST, SUITE B4",,FLAGSTAFF,AZ,86004,,,,,Private School,8/10/2024 12:00:00 AM,True,False,False
P-1171.19,First American Eagle University (TUCSON),"1880 E. RIVER RD., SUITE 120",,TUCSON,AZ,85718,,520-577-8707,,,Private School,10/30/2024 12:00:00 AM,True,False,False
S20-0013,THE REAL ESTATE SCHOOL OF ARIZONA,"1530 E. WILLIAMS FIELD RD,",#206,GILBERT,AZ,85295,MARA BENSON,480-215-6658,info@realestateschoolofaz.com,www.realestateschoolofaz.com,Private School,12/31/2024 12:00:00 AM,True,False,False
S22-0002,Del Maestro's School of Real Estate,7002 W Canterbury Drive,,Peoria,AZ,85345,Leslie Del Maestro,602-505-0132,lesliedelmaestro@gmail.com,,Private School,3/8/2026 12:00:00 AM,True,False,False
